start=new Date('2022-02-17T00:00:00.000Z').valueOf();
sats=[{"EPOCH":"2022-02-16T22:43:20.165952","OBJECT_TYPE":"PAYLOAD","REF_FRAME":"TEME","APOAPSIS":"548.380","DECAY_DATE":null,"ELEMENT_SET_NO":"999","MEAN_ANOMALY":"292.9065","PERIOD":"95.593","CLASSIFICATION_TYPE":"U","TLE_LINE1":"1 46552U 20070W   22047.94676118  .00000630  00000-0  61188-4 0  9995","PERIAPSIS":"546.137","MEAN_MOTION_DOT":"0.00000630","MEAN_MOTION_DDOT":"0.0000000000000","MEAN_MOTION":"15.06385287","RCS_SIZE":"LARGE","REV_AT_EPOCH":"7638","EPHEMERIS_TYPE":"0","CENTER_NAME":"EARTH","GP_ID":"196131780","INCLINATION":"53.0549","LAUNCH_DATE":"2020-10-06","TIME_SYSTEM":"UTC","TLE_LINE2":"2 46552  53.0549 333.4156 0001619  67.2095 292.9065 15.06385287 76383","RA_OF_ASC_NODE":"333.4156","MEAN_ELEMENT_THEORY":"SGP4","OBJECT_ID":"2020-070W","ARG_OF_PERICENTER":"67.2095","BSTAR":"0.00006118800000","FILE":"3302660","SEMIMAJOR_AXIS":"6925.394","OBJECT_NAME":"STARLINK-1649","COUNTRY_CODE":"US","SITE":"AFETR","NORAD_CAT_ID":"46552","ECCENTRICITY":"0.00016190"},{"SEMIMAJOR_AXIS":"6925.386","BSTAR":"0.00012241000000","FILE":"3302660","ARG_OF_PERICENTER":"66.4263","OBJECT_ID":"2020-070X","MEAN_ELEMENT_THEORY":"SGP4","RA_OF_ASC_NODE":"318.5962","ECCENTRICITY":"0.00015050","NORAD_CAT_ID":"46553","SITE":"AFETR","COUNTRY_CODE":"US","OBJECT_NAME":"STARLINK-1664","TLE_LINE2":"2 46553  53.0547 318.5962 0001505  66.4263 293.6884 15.06387750 76589","TIME_SYSTEM":"UTC","LAUNCH_DATE":"2020-10-06","INCLINATION":"53.0547","GP_ID":"196132530","MEAN_MOTION_DDOT":"0.0000000000000","MEAN_MOTION_DOT":"0.00001542","PERIAPSIS":"546.209","TLE_LINE1":"1 46553U 20070X   22047.90849582  .00001542  00000-0  12241-3 0  9997","CENTER_NAME":"EARTH","EPHEMERIS_TYPE":"0","REV_AT_EPOCH":"7658","MEAN_MOTION":"15.06387750","RCS_SIZE":"LARGE","ELEMENT_SET_NO":"999","DECAY_DATE":null,"APOAPSIS":"548.293","REF_FRAME":"TEME","OBJECT_TYPE":"PAYLOAD","EPOCH":"2022-02-16T21:48:14.038848","CLASSIFICATION_TYPE":"U","PERIOD":"95.593","MEAN_ANOMALY":"293.6884"},{"INCLINATION":"53.0548","TIME_SYSTEM":"UTC","LAUNCH_DATE":"2020-10-06","TLE_LINE2":"2 46554  53.0548 335.4357 0001306  75.8992 284.2142 15.06388514 76312","GP_ID":"196092434","FILE":"3301890","BSTAR":"-0.00005562700000","SEMIMAJOR_AXIS":"6925.384","RA_OF_ASC_NODE":"335.4357","MEAN_ELEMENT_THEORY":"SGP4","OBJECT_ID":"2020-070Y","ARG_OF_PERICENTER":"75.8992","COUNTRY_CODE":"US","SITE":"AFETR","NORAD_CAT_ID":"46554","ECCENTRICITY":"0.00013060","OBJECT_NAME":"STARLINK-1671","APOAPSIS":"548.153","DECAY_DATE":null,"ELEMENT_SET_NO":"999","EPOCH":"2022-02-16T11:55:47.406144","OBJECT_TYPE":"PAYLOAD","REF_FRAME":"TEME","PERIOD":"95.593","CLASSIFICATION_TYPE":"U","MEAN_ANOMALY":"284.2142","PERIAPSIS":"546.344","MEAN_MOTION_DOT":"-0.00001110","MEAN_MOTION_DDOT":"0.0000000000000","TLE_LINE1":"1 46554U 20070Y   22047.49707646 -.00001110  00000-0 -55627-4 0  9995","EPHEMERIS_TYPE":"0","CENTER_NAME":"EARTH","RCS_SIZE":"LARGE","MEAN_MOTION":"15.06388514","REV_AT_EPOCH":"7631"},{"EPHEMERIS_TYPE":"0","CENTER_NAME":"EARTH","MEAN_MOTION":"15.06412074","RCS_SIZE":"LARGE","REV_AT_EPOCH":"7616","PERIAPSIS":"545.939","MEAN_MOTION_DOT":"0.00005277","MEAN_MOTION_DDOT":"0.0000000000000","TLE_LINE1":"1 46556U 20070AA  22047.88824195  .00005277  00000-0  37275-3 0  9993","PERIOD":"95.591","CLASSIFICATION_TYPE":"U","MEAN_ANOMALY":"294.2159","APOAPSIS":"548.414","DECAY_DATE":null,"ELEMENT_SET_NO":"999","EPOCH":"2022-02-16T21:19:04.104480","OBJECT_TYPE":"PAYLOAD","REF_FRAME":"TEME","SITE":"AFETR","COUNTRY_CODE":"US","NORAD_CAT_ID":"46556","ECCENTRICITY":"0.00017870","OBJECT_NAME":"STARLINK-1676","FILE":"3302660","BSTAR":"0.00037275000000","SEMIMAJOR_AXIS":"6925.312","RA_OF_ASC_NODE":"348.6956","MEAN_ELEMENT_THEORY":"SGP4","OBJECT_ID":"2020-070AA","ARG_OF_PERICENTER":"65.9017","INCLINATION":"53.0539","TIME_SYSTEM":"UTC","LAUNCH_DATE":"2020-10-06","TLE_LINE2":"2 46556  53.0539 348.6956 0001787  65.9017 294.2159 15.06412074 76167","GP_ID":"196131029"},{"OBJECT_NAME":"STARLINK-1679","NORAD_CAT_ID":"46557","ECCENTRICITY":"0.00015730","COUNTRY_CODE":"US","SITE":"AFETR","OBJECT_ID":"2020-070AB","ARG_OF_PERICENTER":"70.6261","MEAN_ELEMENT_THEORY":"SGP4","RA_OF_ASC_NODE":"333.4918","SEMIMAJOR_AXIS":"6925.379","FILE":"3302660","BSTAR":"0.00010499000000","GP_ID":"196132280","TLE_LINE2":"2 46557  53.0557 333.4918 0001573  70.6261 289.4898 15.06390214 76386","TIME_SYSTEM":"UTC","LAUNCH_DATE":"2020-10-06","INCLINATION":"53.0557","REV_AT_EPOCH":"7638","MEAN_MOTION":"15.06390214","RCS_SIZE":"LARGE","CENTER_NAME":"EARTH","EPHEMERIS_TYPE":"0","TLE_LINE1":"1 46557U 20070AB  22047.93201889  .00001282  00000-0  10499-3 0  9990","MEAN_MOTION_DDOT":"0.0000000000000","MEAN_MOTION_DOT":"0.00001282","PERIAPSIS":"546.154","MEAN_ANOMALY":"289.4898","CLASSIFICATION_TYPE":"U","PERIOD":"95.593","REF_FRAME":"TEME","OBJECT_TYPE":"PAYLOAD","EPOCH":"2022-02-16T22:22:06.432096","ELEMENT_SET_NO":"999","DECAY_DATE":null,"APOAPSIS":"548.333"},{"RA_OF_ASC_NODE":"333.4484","MEAN_ELEMENT_THEORY":"SGP4","OBJECT_ID":"2020-070AC","ARG_OF_PERICENTER":"66.3651","FILE":"3302660","BSTAR":"0.00023949000000","SEMIMAJOR_AXIS":"6925.366","OBJECT_NAME":"STARLINK-1680","SITE":"AFETR","COUNTRY_CODE":"US","NORAD_CAT_ID":"46558","ECCENTRICITY":"0.00017370","GP_ID":"196132031","INCLINATION":"53.0546","TIME_SYSTEM":"UTC","LAUNCH_DATE":"2020-10-06","TLE_LINE2":"2 46558  53.0546 333.4484 0001737  66.3651 293.7521 15.06394430 76352","TLE_LINE1":"1 46558U 20070AC  22047.93938237  .00003287  00000-0  23949-3 0  9996","PERIAPSIS":"546.028","MEAN_MOTION_DOT":"0.00003287","MEAN_MOTION_DDOT":"0.0000000000000","MEAN_MOTION":"15.06394430","RCS_SIZE":"LARGE","REV_AT_EPOCH":"7635","EPHEMERIS_TYPE":"0","CENTER_NAME":"EARTH","EPOCH":"2022-02-16T22:32:42.636768","OBJECT_TYPE":"PAYLOAD","REF_FRAME":"TEME","APOAPSIS":"548.434","DECAY_DATE":null,"ELEMENT_SET_NO":"999","MEAN_ANOMALY":"293.7521","PERIOD":"95.592","CLASSIFICATION_TYPE":"U"},{"MEAN_ANOMALY":"295.5712","CLASSIFICATION_TYPE":"U","PERIOD":"95.593","REF_FRAME":"TEME","OBJECT_TYPE":"PAYLOAD","EPOCH":"2022-02-16T22:16:07.777920","ELEMENT_SET_NO":"999","DECAY_DATE":null,"APOAPSIS":"548.248","REV_AT_EPOCH":"7658","MEAN_MOTION":"15.06389231","RCS_SIZE":"LARGE","CENTER_NAME":"EARTH","EPHEMERIS_TYPE":"0","TLE_LINE1":"1 46559U 20070AD  22047.92786780 -.00001692  00000-0 -94765-4 0  9995","MEAN_MOTION_DDOT":"0.0000000000000","MEAN_MOTION_DOT":"-0.00001692","PERIAPSIS":"546.245","GP_ID":"196130779","TLE_LINE2":"2 46559  53.0550 318.5048 0001446  64.5426 295.5712 15.06389231 76585","LAUNCH_DATE":"2020-10-06","TIME_SYSTEM":"UTC","INCLINATION":"53.0550","OBJECT_NAME":"STARLINK-1681","NORAD_CAT_ID":"46559","ECCENTRICITY":"0.00014460","SITE":"AFETR","COUNTRY_CODE":"US","OBJECT_ID":"2020-070AD","ARG_OF_PERICENTER":"64.5426","MEAN_ELEMENT_THEORY":"SGP4","RA_OF_ASC_NODE":"318.5048","SEMIMAJOR_AXIS":"6925.382","FILE":"3302660","BSTAR":"-0.00009476500000"},{"TLE_LINE1":"1 46560U 20070AE  22047.95413462  .00008125  00000-0  56377-3 0  9996","MEAN_MOTION_DDOT":"0.0000000000000","PERIAPSIS":"546.122","MEAN_MOTION_DOT":"0.00008125","REV_AT_EPOCH":"7638","RCS_SIZE":"LARGE","MEAN_MOTION":"15.06397935","CENTER_NAME":"EARTH","EPHEMERIS_TYPE":"0","OBJECT_TYPE":"PAYLOAD","REF_FRAME":"TEME","EPOCH":"2022-02-16T22:53:57.231168","ELEMENT_SET_NO":"999","APOAPSIS":"548.318","DECAY_DATE":null,"MEAN_ANOMALY":"296.8412","PERIOD":"95.592","CLASSIFICATION_TYPE":"U","OBJECT_ID":"2020-070AE","ARG_OF_PERICENTER":"63.2739","RA_OF_ASC_NODE":"333.3882","MEAN_ELEMENT_THEORY":"SGP4","SEMIMAJOR_AXIS":"6925.355","BSTAR":"0.00056377000000","FILE":"3302660","OBJECT_NAME":"STARLINK-1706","NORAD_CAT_ID":"46560","ECCENTRICITY":"0.00015850","SITE":"AFETR","COUNTRY_CODE":"US","GP_ID":"196131529","TIME_SYSTEM":"UTC","LAUNCH_DATE":"2020-10-06","TLE_LINE2":"2 46560  53.0542 333.3882 0001585  63.2739 296.8412 15.06397935 76385","INCLINATION":"53.0542"},{"REV_AT_EPOCH":"7632","RCS_SIZE":"LARGE","MEAN_MOTION":"15.06401121","CENTER_NAME":"EARTH","EPHEMERIS_TYPE":"0","TLE_LINE1":"1 46561U 20070AF  22047.50444276 -.00000118  00000-0  10985-4 0  9996","MEAN_MOTION_DDOT":"0.0000000000000","MEAN_MOTION_DOT":"-0.00000118","PERIAPSIS":"546.288","MEAN_ANOMALY":"291.5218","CLASSIFICATION_TYPE":"U","PERIOD":"95.592","REF_FRAME":"TEME","OBJECT_TYPE":"PAYLOAD","EPOCH":"2022-02-16T12:06:23.854464","ELEMENT_SET_NO":"999","DECAY_DATE":null,"APOAPSIS":"548.132","OBJECT_NAME":"STARLINK-1709","NORAD_CAT_ID":"46561","ECCENTRICITY":"0.00013310","COUNTRY_CODE":"US","SITE":"AFETR","OBJECT_ID":"2020-070AF","ARG_OF_PERICENTER":"68.5913","MEAN_ELEMENT_THEORY":"SGP4","RA_OF_ASC_NODE":"335.4178","SEMIMAJOR_AXIS":"6925.345","FILE":"3302288","BSTAR":"0.00001098500000","GP_ID":"196101710","TLE_LINE2":"2 46561  53.0557 335.4178 0001331  68.5913 291.5218 15.06401121 76327","TIME_SYSTEM":"UTC","LAUNCH_DATE":"2020-10-06","INCLINATION":"53.0557"},{"INCLINATION":"53.0560","TIME_SYSTEM":"UTC","LAUNCH_DATE":"2020-10-06","TLE_LINE2":"2 46562  53.0560 330.4038 0001419  70.6355 289.4787 15.06393083 76383","GP_ID":"196093683","BSTAR":"0.00006215600000","FILE":"3301890","SEMIMAJOR_AXIS":"6925.370","RA_OF_ASC_NODE":"330.4038","MEAN_ELEMENT_THEORY":"SGP4","ARG_OF_PERICENTER":"70.6355","OBJECT_ID":"2020-070AG","COUNTRY_CODE":"US","SITE":"AFETR","NORAD_CAT_ID":"46562","ECCENTRICITY":"0.00014190","OBJECT_NAME":"STARLINK-1714","APOAPSIS":"548.217","DECAY_DATE":null,"ELEMENT_SET_NO":"999","EPOCH":"2022-02-16T12:09:43.443648","OBJECT_TYPE":"PAYLOAD","REF_FRAME":"TEME","PERIOD":"95.593","CLASSIFICATION_TYPE":"U","MEAN_ANOMALY":"289.4787","PERIAPSIS":"546.252","MEAN_MOTION_DOT":"0.00000644","MEAN_MOTION_DDOT":"0.0000000000000","TLE_LINE1":"1 46562U 20070AG  22047.50675282  .00000644  00000-0  62156-4 0  9990","EPHEMERIS_TYPE":"0","CENTER_NAME":"EARTH","MEAN_MOTION":"15.06393083","RCS_SIZE":"LARGE","REV_AT_EPOCH":"7638"}];
